start=new Date('2021-08-23T00:00:00.000Z').valueOf();
sats=[{"DECAY_DATE":null,"MEAN_ANOMALY":"292.7244","REV_AT_EPOCH":"4674","COUNTRY_CODE":"US","EPHEMERIS_TYPE":"0","MEAN_MOTION_DOT":"0.00000342","TLE_LINE2":"2 46681  53.0556 147.7589 0001765  67.3932 292.7244 15.06391893 46747","RCS_SIZE":"LARGE","ELEMENT_SET_NO":"999","OBJECT_ID":"2020-073M","GP_ID":"183272150","CENTER_NAME":"EARTH","BSTAR":"0.00004187700000","PERIAPSIS":"546.016","INCLINATION":"53.0556","MEAN_MOTION":"15.06391893","SEMIMAJOR_AXIS":"6925.373","TLE_LINE1":"1 46681U 20073M   21234.88686276  .00000342  00000-0  41877-4 0  9990","RA_OF_ASC_NODE":"147.7589","PERIOD":"95.593","MEAN_ELEMENT_THEORY":"SGP4","ARG_OF_PERICENTER":"67.3932","OBJECT_NAME":"STARLINK-1775","NORAD_CAT_ID":"46681","OBJECT_TYPE":"PAYLOAD","TIME_SYSTEM":"UTC","APOAPSIS":"548.461","CLASSIFICATION_TYPE":"U","ECCENTRICITY":"0.00017650","LAUNCH_DATE":"2020-10-18","SITE":"AFETR","EPOCH":"2021-08-22T21:17:04.942464","REF_FRAME":"TEME","MEAN_MOTION_DDOT":"0.0000000000000","FILE":"3101563"},{"CENTER_NAME":"EARTH","PERIAPSIS":"545.847","BSTAR":"0.00009082000000","INCLINATION":"53.0551","SEMIMAJOR_AXIS":"6925.371","MEAN_MOTION":"15.06392698","TLE_LINE1":"1 46682U 20073N   21234.84631580  .00001071  00000-0  90820-4 0  9997","DECAY_DATE":null,"COUNTRY_CODE":"US","EPHEMERIS_TYPE":"0","MEAN_ANOMALY":"304.8392","REV_AT_EPOCH":"4674","ELEMENT_SET_NO":"999","RCS_SIZE":"LARGE","MEAN_MOTION_DOT":"0.00001071","TLE_LINE2":"2 46682  53.0551 147.9531 0002005  55.2785 304.8392 15.06392698 46745","OBJECT_ID":"2020-073N","GP_ID":"183272401","ECCENTRICITY":"0.00020050","LAUNCH_DATE":"2020-10-18","CLASSIFICATION_TYPE":"U","MEAN_MOTION_DDOT":"0.0000000000000","REF_FRAME":"TEME","SITE":"AFETR","EPOCH":"2021-08-22T20:18:41.685120","FILE":"3101563","PERIOD":"95.593","MEAN_ELEMENT_THEORY":"SGP4","RA_OF_ASC_NODE":"147.9531","OBJECT_NAME":"STARLINK-1776","NORAD_CAT_ID":"46682","ARG_OF_PERICENTER":"55.2785","APOAPSIS":"548.624","TIME_SYSTEM":"UTC","OBJECT_TYPE":"PAYLOAD"},{"BSTAR":"0.00238220000000","PERIAPSIS":"297.359","INCLINATION":"53.0513","CENTER_NAME":"EARTH","TLE_LINE1":"1 46683U 20073P   21234.83942144  .00728209  22122-3  23822-2 0  9995","MEAN_MOTION":"15.90021887","SEMIMAJOR_AXIS":"6680.359","REV_AT_EPOCH":"4727","MEAN_ANOMALY":"81.9619","EPHEMERIS_TYPE":"0","COUNTRY_CODE":"US","DECAY_DATE":null,"GP_ID":"183271149","OBJECT_ID":"2020-073P","MEAN_MOTION_DOT":"0.00728209","TLE_LINE2":"2 46683  53.0513 109.5736 0007282 278.0580  81.9619 15.90021887 47271","ELEMENT_SET_NO":"999","RCS_SIZE":"LARGE","CLASSIFICATION_TYPE":"U","LAUNCH_DATE":"2020-10-18","ECCENTRICITY":"0.00072820","FILE":"3101563","EPOCH":"2021-08-22T20:08:46.012416","SITE":"AFETR","MEAN_MOTION_DDOT":"0.0002212200000","REF_FRAME":"TEME","RA_OF_ASC_NODE":"109.5736","MEAN_ELEMENT_THEORY":"SGP4","PERIOD":"90.565","OBJECT_TYPE":"PAYLOAD","TIME_SYSTEM":"UTC","APOAPSIS":"307.088","ARG_OF_PERICENTER":"278.0580","NORAD_CAT_ID":"46683","OBJECT_NAME":"STARLINK-1778"},{"PERIOD":"95.592","MEAN_ELEMENT_THEORY":"SGP4","RA_OF_ASC_NODE":"133.6057","NORAD_CAT_ID":"46684","OBJECT_NAME":"STARLINK-1780","ARG_OF_PERICENTER":"63.7725","APOAPSIS":"548.604","TIME_SYSTEM":"UTC","OBJECT_TYPE":"PAYLOAD","ECCENTRICITY":"0.00019850","LAUNCH_DATE":"2020-10-18","CLASSIFICATION_TYPE":"U","MEAN_MOTION_DDOT":"0.0000000000000","REF_FRAME":"TEME","SITE":"AFETR","EPOCH":"2021-08-22T16:51:01.893600","FILE":"3101563","DECAY_DATE":null,"EPHEMERIS_TYPE":"0","COUNTRY_CODE":"US","MEAN_ANOMALY":"296.3467","REV_AT_EPOCH":"4693","RCS_SIZE":"LARGE","ELEMENT_SET_NO":"999","MEAN_MOTION_DOT":"0.00001035","TLE_LINE2":"2 46684  53.0551 133.6057 0001985  63.7725 296.3467 15.06394989 46930","OBJECT_ID":"2020-073Q","GP_ID":"183271399","CENTER_NAME":"EARTH","BSTAR":"0.00008841200000","PERIAPSIS":"545.854","INCLINATION":"53.0551","SEMIMAJOR_AXIS":"6925.364","MEAN_MOTION":"15.06394989","TLE_LINE1":"1 46684U 20073Q   21234.70210525  .00001035  00000-0  88412-4 0  9990"},{"PERIAPSIS":"545.892","BSTAR":"0.00005517800000","INCLINATION":"53.0544","CENTER_NAME":"EARTH","TLE_LINE1":"1 46685U 20073R   21234.75785362  .00000540  00000-0  55178-4 0  9995","MEAN_MOTION":"15.06399196","SEMIMAJOR_AXIS":"6925.351","REV_AT_EPOCH":"4720","MEAN_ANOMALY":"301.6861","EPHEMERIS_TYPE":"0","COUNTRY_CODE":"US","DECAY_DATE":null,"GP_ID":"183249158","OBJECT_ID":"2020-073R","TLE_LINE2":"2 46685  53.0544 148.3276 0001912  58.4315 301.6861 15.06399196 47209","MEAN_MOTION_DOT":"0.00000540","ELEMENT_SET_NO":"999","RCS_SIZE":"LARGE","CLASSIFICATION_TYPE":"U","LAUNCH_DATE":"2020-10-18","ECCENTRICITY":"0.00019120","FILE":"3101481","EPOCH":"2021-08-22T18:11:18.552768","SITE":"AFETR","REF_FRAME":"TEME","MEAN_MOTION_DDOT":"0.0000000000000","RA_OF_ASC_NODE":"148.3276","MEAN_ELEMENT_THEORY":"SGP4","PERIOD":"95.592","TIME_SYSTEM":"UTC","OBJECT_TYPE":"PAYLOAD","APOAPSIS":"548.540","ARG_OF_PERICENTER":"58.4315","OBJECT_NAME":"STARLINK-1781","NORAD_CAT_ID":"46685"},{"PERIAPSIS":"545.961","INCLINATION":"53.0544","BSTAR":"-0.00003324400000","CENTER_NAME":"EARTH","TLE_LINE1":"1 46686U 20073S   21234.87212234 -.00000777  00000-0 -33244-4 0  9996","MEAN_MOTION":"15.06394017","SEMIMAJOR_AXIS":"6925.367","MEAN_ANOMALY":"276.7387","REV_AT_EPOCH":"4674","EPHEMERIS_TYPE":"0","COUNTRY_CODE":"US","DECAY_DATE":null,"OBJECT_ID":"2020-073S","GP_ID":"183272902","TLE_LINE2":"2 46686  53.0544 147.8270 0001835  83.3811 276.7387 15.06394017 46740","MEAN_MOTION_DOT":"-0.00000777","RCS_SIZE":"LARGE","ELEMENT_SET_NO":"999","CLASSIFICATION_TYPE":"U","ECCENTRICITY":"0.00018350","LAUNCH_DATE":"2020-10-18","FILE":"3101563","SITE":"AFETR","EPOCH":"2021-08-22T20:55:51.370176","MEAN_MOTION_DDOT":"0.0000000000000","REF_FRAME":"TEME","RA_OF_ASC_NODE":"147.8270","PERIOD":"95.593","MEAN_ELEMENT_THEORY":"SGP4","TIME_SYSTEM":"UTC","OBJECT_TYPE":"PAYLOAD","APOAPSIS":"548.503","ARG_OF_PERICENTER":"83.3811","NORAD_CAT_ID":"46686","OBJECT_NAME":"STARLINK-1783"},{"RA_OF_ASC_NODE":"112.5794","MEAN_ELEMENT_THEORY":"SGP4","PERIOD":"95.593","ARG_OF_PERICENTER":"77.9514","OBJECT_NAME":"STARLINK-1784","NORAD_CAT_ID":"46687","OBJECT_TYPE":"PAYLOAD","TIME_SYSTEM":"UTC","APOAPSIS":"548.584","CLASSIFICATION_TYPE":"U","LAUNCH_DATE":"2020-10-18","ECCENTRICITY":"0.00019480","EPOCH":"2021-08-22T22:12:09.614592","SITE":"AFETR","MEAN_MOTION_DDOT":"0.0000000000000","REF_FRAME":"TEME","FILE":"3101563","DECAY_DATE":null,"REV_AT_EPOCH":"4724","MEAN_ANOMALY":"282.1693","EPHEMERIS_TYPE":"0","COUNTRY_CODE":"US","TLE_LINE2":"2 46687  53.0548 112.5794 0001948  77.9514 282.1693 15.06392918 47244","MEAN_MOTION_DOT":"0.00001070","ELEMENT_SET_NO":"999","RCS_SIZE":"LARGE","GP_ID":"183271650","OBJECT_ID":"2020-073T","CENTER_NAME":"EARTH","PERIAPSIS":"545.886","INCLINATION":"53.0548","BSTAR":"0.00009074300000","MEAN_MOTION":"15.06392918","SEMIMAJOR_AXIS":"6925.370","TLE_LINE1":"1 46687U 20073T   21234.92511128  .00001070  00000-0  90743-4 0  9999"},{"CENTER_NAME":"EARTH","BSTAR":"-0.00010088000000","PERIAPSIS":"546.034","INCLINATION":"53.0551","MEAN_MOTION":"15.06404230","SEMIMAJOR_AXIS":"6925.336","TLE_LINE1":"1 46688U 20073U   21234.76890337 -.00001784  00000-0 -10088-3 0  9991","DECAY_DATE":null,"MEAN_ANOMALY":"299.2260","REV_AT_EPOCH":"4673","EPHEMERIS_TYPE":"0","COUNTRY_CODE":"US","TLE_LINE2":"2 46688  53.0551 148.3026 0001684  60.8897 299.2260 15.06404230 46739","MEAN_MOTION_DOT":"-0.00001784","ELEMENT_SET_NO":"999","RCS_SIZE":"LARGE","OBJECT_ID":"2020-073U","GP_ID":"183271900","CLASSIFICATION_TYPE":"U","ECCENTRICITY":"0.00016840","LAUNCH_DATE":"2020-10-18","SITE":"AFETR","EPOCH":"2021-08-22T18:27:13.251168","MEAN_MOTION_DDOT":"0.0000000000000","REF_FRAME":"TEME","FILE":"3101563","RA_OF_ASC_NODE":"148.3026","PERIOD":"95.592","MEAN_ELEMENT_THEORY":"SGP4","ARG_OF_PERICENTER":"60.8897","NORAD_CAT_ID":"46688","OBJECT_NAME":"STARLINK-1786","TIME_SYSTEM":"UTC","OBJECT_TYPE":"PAYLOAD","APOAPSIS":"548.367"},{"MEAN_ELEMENT_THEORY":"SGP4","PERIOD":"95.592","RA_OF_ASC_NODE":"148.3774","APOAPSIS":"548.649","TIME_SYSTEM":"UTC","OBJECT_TYPE":"PAYLOAD","OBJECT_NAME":"STARLINK-1788","NORAD_CAT_ID":"46689","ARG_OF_PERICENTER":"64.3475","LAUNCH_DATE":"2020-10-18","ECCENTRICITY":"0.00020530","CLASSIFICATION_TYPE":"U","FILE":"3101482","REF_FRAME":"TEME","MEAN_MOTION_DDOT":"0.0000000000000","EPOCH":"2021-08-22T18:00:41.859936","SITE":"AFETR","EPHEMERIS_TYPE":"0","COUNTRY_CODE":"US","REV_AT_EPOCH":"4720","MEAN_ANOMALY":"295.7726","DECAY_DATE":null,"GP_ID":"183248721","OBJECT_ID":"2020-073V","ELEMENT_SET_NO":"999","RCS_SIZE":"LARGE","TLE_LINE2":"2 46689  53.0548 148.3774 0002053  64.3475 295.7726 15.06395536 47207","MEAN_MOTION_DOT":"0.00000935","PERIAPSIS":"545.805","BSTAR":"0.00008171400000","INCLINATION":"53.0548","CENTER_NAME":"EARTH","TLE_LINE1":"1 46689U 20073V   21234.75048449  .00000935  00000-0  81714-4 0  9990","SEMIMAJOR_AXIS":"6925.362","MEAN_MOTION":"15.06395536"},{"RA_OF_ASC_NODE":"122.4673","PERIOD":"95.593","MEAN_ELEMENT_THEORY":"SGP4","TIME_SYSTEM":"UTC","OBJECT_TYPE":"PAYLOAD","APOAPSIS":"548.675","ARG_OF_PERICENTER":"73.0453","OBJECT_NAME":"STARLINK-1789","NORAD_CAT_ID":"46690","CLASSIFICATION_TYPE":"U","ECCENTRICITY":"0.00020740","LAUNCH_DATE":"2020-10-18","FILE":"3101563","SITE":"AFETR","EPOCH":"2021-08-22T22:47:59.057376","MEAN_MOTION_DDOT":"0.0000000000000","REF_FRAME":"TEME","MEAN_ANOMALY":"287.0764","REV_AT_EPOCH":"4710","EPHEMERIS_TYPE":"0","COUNTRY_CODE":"US","DECAY_DATE":null,"OBJECT_ID":"2020-073W","GP_ID":"183272402","MEAN_MOTION_DOT":"-0.00000777","TLE_LINE2":"2 46690  53.0545 122.4673 0002074  73.0453 287.0764 15.06391796 47102","RCS_SIZE":"LARGE","ELEMENT_SET_NO":"999","PERIAPSIS":"545.802","BSTAR":"-0.00003325800000","INCLINATION":"53.0545","CENTER_NAME":"EARTH","TLE_LINE1":"1 46690U 20073W   21234.94998909 -.00000777  00000-0 -33258-4 0  9994","MEAN_MOTION":"15.06391796","SEMIMAJOR_AXIS":"6925.374"}];
